NORAD_CAT_ID,OBJECT_NAME,OBJECT_TYPE,EPOCH,MEAN_MOTION,ECCENTRICITY,INCLINATION,RA_OF_ASC_NODE,ARG_OF_PERICENTER,MEAN_ANOMALY,BSTAR,MEAN_MOTION_DOT,MEAN_MOTION_DDOT,TLE_LINE0,TLE_LINE1,TLE_LINE2,SEMIMAJOR_AXIS,PERIOD,APOGEE,PERIGEE,DECAYED
55300.0,STARLINK-5308,PAYLOAD,2023-02-04 10:00:00,15.75397889,0.0003769,70.0001,24.2905,256.8655,25.4553,-0.006026,-0.00830486,0.0,0 STARLINK-5308,1 55300U 23010AH  23035.41667824 -.00830486  00000-0 -60260-2 0  9997,2 55300  70.0001  24.2905 0003769 256.8655  25.4553 15.75397889  3006,6721.636,91.405,346.035,340.968,0.0
55300.0,STARLINK-5308,PAYLOAD,2023-02-04 14:00:01,15.75108555,0.0003472,69.9994,23.8177,263.0666,244.1089,-0.0062195,-0.00844786,0.0,0 STARLINK-5308,1 55300U 23010AH  23035.58334491 -.00844786  00000-0 -62195-2 0  9993,2 55300  69.9994  23.8177 0003472 263.0666 244.1089 15.75108555  1308,6722.459,91.422,346.658,341.99,0.0
55300.0,STARLINK-5308,PAYLOAD,2023-02-04 22:00:00,15.74502196,0.0003502,70.0001,22.8741,262.849,333.5096,-0.0062886,-0.00833047,0.0,0 STARLINK-5308,1 55300U 23010AH  23035.91667824 -.00833047  00000-0 -62886-2 0  9994,2 55300  70.0001  22.8741 0003502 262.8490 333.5096 15.74502196  1301,6724.185,91.457,348.405,343.695,0.0
55300.0,STARLINK-5308,PAYLOAD,2023-02-05 06:00:00,15.73901141,0.0003835,70.0002,21.9306,255.8636,68.9586,-0.0064164,-0.00828677,0.0,0 STARLINK-5308,1 55300U 23010AH  23036.25001157 -.00828677  00000-0 -64164-2 0  9997,2 55300  70.0002  21.9306 0003835 255.8636  68.9586 15.73901141  3130,6725.897,91.492,350.341,345.183,0.0
55300.0,STARLINK-5308,PAYLOAD,2023-02-05 14:00:01,15.73322919,0.0003549,69.9961,20.9801,270.0859,142.58,-0.0069355,-0.00869277,0.0,0 STARLINK-5308,1 55300U 23010AH  23036.58335648 -.00869277  00000-0 -69355-2 0  9996,2 55300  69.9961  20.9801 0003549 270.0859 142.5800 15.73322919  1303,6727.545,91.526,351.797,347.022,0.0
55300.0,STARLINK-5308,PAYLOAD,2023-02-05 22:00:00,15.7273424,0.0003255,69.9967,20.0389,264.5464,235.0676,-0.0069737,-0.0085372,0.0,0 STARLINK-5308,1 55300U 23010AH  23036.91667824 -.00853720  00000-0 -69737-2 0  9997,2 55300  69.9967  20.0389 0003255 264.5464 235.0676 15.72734240  1307,6729.223,91.56,353.279,348.898,0.0
55300.0,STARLINK-5308,PAYLOAD,2023-02-06 06:00:00,15.72083116,0.0003559,69.9969,19.0983,270.9219,315.032,-0.0066425,-0.00796466,0.0,0 STARLINK-5308,1 55300U 23010AH  23037.25001157 -.00796466  00000-0 -66425-2 0  9990,2 55300  69.9969  19.0983 0003559 270.9219 315.0320 15.72083116  3297,6731.081,91.598,355.342,350.551,0.0
55300.0,STARLINK-5308,PAYLOAD,2023-02-06 14:00:01,15.71534818,0.0003618,69.9966,18.1583,268.3392,43.1918,-0.0075705,-0.00878195,0.0,0 STARLINK-5308,1 55300U 23010AH  23037.58334491 -.00878195  00000-0 -75705-2 0  9997,2 55300  69.9966  18.1583 0003618 268.3392  43.1918 15.71534818  1300,6732.647,91.63,356.948,352.076,0.0
55300.0,STARLINK-5308,PAYLOAD,2023-02-06 22:00:00,15.70936049,0.0003676,69.9969,17.2197,264.6143,131.787,-0.0075545,-0.00856709,0.0,0 STARLINK-5308,1 55300U 23010AH  23037.91667824 -.00856709  00000-0 -75545-2 0  9992,2 55300  69.9969  17.2197 0003676 264.6143 131.7870 15.70936049  1303,6734.358,91.665,358.698,353.747,0.0
55300.0,STARLINK-5308,PAYLOAD,2023-02-07 00:00:00,15.70796712,0.0003575,69.9972,16.985,265.382,242.1271,-0.0078474,-0.00881961,0.0,0 STARLINK-5308,1 55300U 23010AH  23038.00001157 -.00881961  00000-0 -78474-2 0  9996,2 55300  69.9972  16.9850 0003575 265.3820 242.1271 15.70796712  3414,6734.756,91.673,359.028,354.213,0.0
55300.0,STARLINK-5308,PAYLOAD,2023-02-07 08:00:01,15.69976778,0.0003652,69.9982,16.0471,270.103,321.4158,-0.00058475,-0.00070098,0.0,0 STARLINK-5308,1 55300U 23010AH  23038.33334491 -.00070098  00000-0 -58475-3 0  9993,2 55300  69.9982  16.0471 0003652 270.1030 321.4158 15.69976778  3468,6737.1,91.721,361.426,356.505,0.0
55300.0,STARLINK-5308,PAYLOAD,2023-02-07 14:00:01,15.69958833,0.0003586,69.9985,15.3437,265.8481,298.1973,-0.0006768,-0.00080934,0.0,0 STARLINK-5308,1 55300U 23010AH  23038.58334491 -.00080934  00000-0 -67680-3 0  9998,2 55300  69.9985  15.3437 0003586 265.8481 298.1973 15.69958833  1300,6737.152,91.722,361.433,356.601,0.0
55300.0,STARLINK-5308,PAYLOAD,2023-02-07 22:00:00,15.69935696,0.0003625,70.0001,14.4065,259.856,27.5254,1.5866e-05,1.696e-05,0.0,0 STARLINK-5308,1 55300U 23010AH  23038.91667824  .00001696  00000-0  15866-4 0  9990,2 55300  70.0001  14.4065 0003625 259.8560  27.5254 15.69935696  1302,6737.218,91.724,361.525,356.641,0.0
55300.0,STARLINK-5308,PAYLOAD,2023-02-08 00:00:00,15.69971073,0.0003618,70.0004,14.1721,261.824,136.3848,-0.00062021,-0.00074281,0.0,0 STARLINK-5308,1 55300U 23010AH  23039.00001157 -.00074281  00000-0 -62021-3 0  9998,2 55300  70.0004  14.1721 0003618 261.8240 136.3848 15.69971073  3568,6737.117,91.721,361.419,356.544,0.0
55300.0,STARLINK-5308,PAYLOAD,2023-02-08 08:00:01,15.69934837,0.0003609,70.0008,13.2347,266.9743,214.6209,0.00065798,0.00079697,0.0,0 STARLINK-5308,1 55300U 23010AH  23039.33334491  .00079697  00000-0  65798-3 0  9992,2 55300  70.0008  13.2347 0003609 266.9743 214.6209 15.69934837  3625,6737.22,91.724,361.517,356.654,0.0
55300.0,STARLINK-5308,PAYLOAD,2023-02-08 14:00:01,15.6995474,0.0003425,70.0004,12.5319,269.7815,184.2707,-0.00062306,-0.00074565,0.0,0 STARLINK-5308,1 55300U 23010AH  23039.58334491 -.00074565  00000-0 -62306-3 0  9992,2 55300  70.0004  12.5319 0003425 269.7815 184.2707 15.69954740  1302,6737.163,91.722,361.336,356.721,0.0
55300.0,STARLINK-5308,PAYLOAD,2023-02-08 16:00:00,15.6991201,0.0003423,70.0007,12.2976,267.9539,296.9471,3.9595e-05,4.548e-05,0.0,0 STARLINK-5308,1 55300U 23010AH  23039.66667824  .00004548  00000-0  39595-4 0  9997,2 55300  70.0007  12.2976 0003423 267.9539 296.9471 15.69912010  3677,6737.286,91.725,361.457,356.845,0.0
55300.0,STARLINK-5308,PAYLOAD,2023-02-08 22:00:00,15.69947975,0.0003433,70.0008,11.5952,263.4237,273.9503,-2.173e-05,-2.827e-05,0.0,0 STARLINK-5308,1 55300U 23010AH  23039.91667824 -.00002827  00000-0 -21730-4 0  9997,2 55300  70.0008  11.5952 0003433 263.4237 273.9503 15.69947975  1308,6737.183,91.723,361.361,356.735,0.0
55300.0,STARLINK-5308,PAYLOAD,2023-02-09 12:00:00,15.69960631,0.0003454,70.0,9.9548,272.2731,320.958,-0.00072112,-0.0008617,0.0,0 STARLINK-5308,1 55300U 23010AH  23040.50001157 -.00086170  00000-0 -72112-3 0  9997,2 55300  70.0000   9.9548 0003454 272.2731 320.9580 15.69960631  1304,6737.147,91.722,361.339,356.685,0.0
55300.0,STARLINK-5308,PAYLOAD,2023-02-09 22:00:00,15.69908997,0.0003479,70.0006,8.7833,261.3407,166.0312,0.0003434,0.00041256,0.0,0 STARLINK-5308,1 55300U 23010AH  23040.91667824  .00041256  00000-0  34340-3 0  9996,2 55300  70.0006   8.7833 0003479 261.3407 166.0312 15.69908997  3862,6737.294,91.725,361.503,356.815,0.0
55300.0,STARLINK-5308,PAYLOAD,2023-02-10 04:00:00,15.6992559,0.0003473,70.0006,8.0805,264.6129,135.2629,0.00016102,0.00019194,0.0,0 STARLINK-5308,1 55300U 23010AH  23041.16667824  .00019194  00000-0  16102-3 0  9996,2 55300  70.0006   8.0805 0003473 264.6129 135.2629 15.69925590  1309,6737.247,91.724,361.452,356.772,0.0
55300.0,STARLINK-5308,PAYLOAD,2023-02-10 18:00:00,15.69861525,0.0003525,70.0005,6.4405,265.7628,189.9971,0.0010354,0.00125846,0.0,0 STARLINK-5308,1 55300U 23010AH  23041.75001157  .00125846  00000-0  10354-2 0  9996,2 55300  70.0005   6.4405 0003525 265.7628 189.9971 15.69861525  3990,6737.43,91.728,361.67,356.92,0.0
55300.0,STARLINK-5308,PAYLOAD,2023-02-10 22:00:00,15.69943657,0.0003537,70.0008,5.9723,267.2372,50.1483,-0.00022834,-0.00027602,0.0,0 STARLINK-5308,1 55300U 23010AH  23041.91667824 -.00027602  00000-0 -22834-3 0  9993,2 55300  70.0008   5.9723 0003537 267.2372  50.1483 15.69943657  1303,6737.195,91.723,361.443,356.677,0.0
55300.0,STARLINK-5308,PAYLOAD,2023-02-11 04:17:53,15.69944322,0.0003402,70.0008,5.2351,264.2523,95.8285,0.00021872,0.00026191,0.0,0 STARLINK-5308,1 55300U 23010AH  23042.17909612  .00026191  00000-0  21872-3 0  9997,2 55300  70.0008   5.2351 0003402 264.2523  95.8285 15.69944322  4061,6737.193,91.723,361.35,356.766,0.0
55300.0,STARLINK-5308,PAYLOAD,2023-02-11 08:53:09,15.69949061,0.0003585,70.0005,4.6967,272.1179,87.9606,0.00020555,0.00024602,0.0,0 STARLINK-5308,1 55300U 23010AH  23042.37024528  .00024602  00000-0  20555-3 0  9995,2 55300  70.0005   4.6967 0003585 272.1179  87.9606 15.69949061  4403,6737.18,91.723,361.46,356.629,0.0
55300.0,STARLINK-5308,PAYLOAD,2023-02-12 00:10:40,15.6993766,0.0003615,69.9998,2.904,266.638,93.4403,0.000287,0.00034459,0.0,0 STARLINK-5308,1 55300U 23010AH  23043.00741750  .00034459  00000-0  28700-3 0  9990,2 55300  69.9998   2.9040 0003615 266.6380  93.4403 15.69937660  4195,6737.212,91.723,361.513,356.642,0.0
55300.0,STARLINK-5308,PAYLOAD,2023-02-13 03:42:00,15.70229844,0.0004178,70.0024,359.6816,242.859,117.218,0.00047679,0.0005826,0.0,0 STARLINK-5308,1 55300U 23010AH  23044.15417496  .00058260  00000-0  47679-3 0  9996,2 55300  70.0024 359.6816 0004178 242.8590 117.2180 15.70229844  4372,6736.377,91.706,361.056,355.427,0.0
55300.0,STARLINK-5308,PAYLOAD,2023-02-13 14:24:28,15.69944362,0.0003606,70.0008,358.4259,269.3818,90.6965,0.00021656,0.0002593,0.0,0 STARLINK-5308,1 55300U 23010AH  23044.60033344  .00025930  00000-0  21656-3 0  9997,2 55300  70.0008 358.4259 0003606 269.3818  90.6965 15.69944362  4444,6737.193,91.723,361.488,356.629,0.0
55300.0,STARLINK-5308,PAYLOAD,2023-02-14 05:42:00,15.69930072,0.0003368,70.0001,356.635,268.7678,91.3132,0.00016099,0.00019194,0.0,0 STARLINK-5308,1 55300U 23010AH  23045.23750357  .00019194  00000-0  16099-3 0  9997,2 55300  70.0001 356.6350 0003368 268.7678  91.3132 15.69930072  4549,6737.234,91.724,361.368,356.83,0.0
55300.0,STARLINK-5308,PAYLOAD,2023-02-14 13:20:45,15.6993754,0.0003257,70.0011,355.7391,271.2011,88.8812,0.00016456,0.00019631,0.0,0 STARLINK-5308,1 55300U 23010AH  23045.55608570  .00019631  00000-0  16456-3 0  9994,2 55300  70.0011 355.7391 0003257 271.2011  88.8812 15.69937540  4905,6737.213,91.723,361.272,356.883,0.0
